XRISM                   
1 57800U 23137A   24255.83103016  .00013594  00000+0  98754-3 0  9993
2 57800  31.0014 180.5659 0009604 343.9678  16.0653 15.02668122 55648
